ONEWEB-0377             
1 49303U 21090AA  23293.50233000 -.00000008  00000+0 -51491-4 0  9996
2 49303  87.9140 107.6902 0001392  86.3576 273.7716 13.20773299102385
ONEWEB-0378             
1 49304U 21090AB  23293.46550311  .00000004  00000+0 -21979-4 0  9992
2 49304  87.9153 107.6968 0001981  90.9836 269.1524 13.20773909101648
ONEWEB-0379             
1 49305U 21090AC  23293.53477604  .00000124  00000+0  29979-3 0  9993
2 49305  87.8945 122.9318 0001751  83.3438 276.7891 13.14500434100043
ONEWEB-0380             
1 49306U 21090AD  23293.50272962  .00000020  00000+0  17657-4 0  9997
2 49306  87.9196 138.1771 0001564  84.3676 275.7635 13.19725604 98394
ONEWEB-0382             
1 49308U 21090AF  23293.47497286  .00000044  00000+0  75141-4 0  9991
2 49308  87.9141 107.6941 0001960  98.7861 261.3494 13.20773226101687
ONEWEB-0383             
1 49309U 21090AG  23293.52843619  .00000252  00000+0  64502-3 0  9992
2 49309  87.8955 122.9180 0001890  85.4085 274.7261 13.14504784100074
ONEWEB-0384             
1 49310U 21090AH  23293.47076983  .00000048  00000+0  85480-4 0  9992
2 49310  87.9154 107.6957 0002196 101.4376 258.7004 13.20774216101694
